start=new Date('2021-09-19T00:00:00.000Z').valueOf();
sats=[{"OBJECT_ID":"2020-062AZ","PERIAPSIS":"545.878","EPOCH":"2021-09-18T15:20:44.351808","SITE":"AFETR","FILE":"3118781","NORAD_CAT_ID":"46372","OBJECT_TYPE":"PAYLOAD","OBJECT_NAME":"STARLINK-1689","ECCENTRICITY":"0.00019130","ELEMENT_SET_NO":"999","BSTAR":"0.00007704600000","MEAN_MOTION_DDOT":"0.0000000000000","ARG_OF_PERICENTER":"72.9401","LAUNCH_DATE":"2020-09-03","COUNTRY_CODE":"US","RCS_SIZE":"LARGE","REF_FRAME":"TEME","INCLINATION":"53.0533","TLE_LINE1":"1 46372U 20062AZ  21261.63940222  .00000866  00000-0  77046-4 0  9990","MEAN_ANOMALY":"287.1797","MEAN_ELEMENT_THEORY":"SGP4","TIME_SYSTEM":"UTC","PERIOD":"95.592","RA_OF_ASC_NODE":"147.6718","DECAY_DATE":null,"CLASSIFICATION_TYPE":"U","EPHEMERIS_TYPE":"0","TLE_LINE2":"2 46372  53.0533 147.6718 0001913  72.9401 287.1797 15.06403391 58178","MEAN_MOTION":"15.06403391","APOAPSIS":"548.528","GP_ID":"184974494","CENTER_NAME":"EARTH","MEAN_MOTION_DOT":"0.00000866","REV_AT_EPOCH":"5817","SEMIMAJOR_AXIS":"6925.338"},{"INCLINATION":"53.0551","COUNTRY_CODE":"US","LAUNCH_DATE":"2020-09-03","REF_FRAME":"TEME","RCS_SIZE":"LARGE","OBJECT_NAME":"STARLINK-1711","ECCENTRICITY":"0.00039870","ELEMENT_SET_NO":"999","MEAN_MOTION_DDOT":"0.0000000000000","BSTAR":"0.00007458700000","ARG_OF_PERICENTER":"256.2743","OBJECT_ID":"2020-062BB","SITE":"AFETR","EPOCH":"2021-09-18T18:51:42.963552","PERIAPSIS":"544.439","FILE":"3118781","NORAD_CAT_ID":"46374","OBJECT_TYPE":"PAYLOAD","APOAPSIS":"549.961","MEAN_MOTION":"15.06404414","CENTER_NAME":"EARTH","GP_ID":"184974244","MEAN_MOTION_DOT":"0.00000829","SEMIMAJOR_AXIS":"6925.335","REV_AT_EPOCH":"5917","DECAY_DATE":null,"CLASSIFICATION_TYPE":"U","TLE_LINE2":"2 46374  53.0551  77.0127 0003987 256.2743 103.7803 15.06404414 59178","EPHEMERIS_TYPE":"0","PERIOD":"95.592","TIME_SYSTEM":"UTC","RA_OF_ASC_NODE":"77.0127","TLE_LINE1":"1 46374U 20062BB  21261.78591393  .00000829  00000-0  74587-4 0  9995","MEAN_ELEMENT_THEORY":"SGP4","MEAN_ANOMALY":"103.7803"},{"INCLINATION":"53.0555","RCS_SIZE":"LARGE","REF_FRAME":"TEME","LAUNCH_DATE":"2020-09-03","COUNTRY_CODE":"US","BSTAR":"0.00007693900000","MEAN_MOTION_DDOT":"0.0000000000000","ARG_OF_PERICENTER":"87.1524","ELEMENT_SET_NO":"999","ECCENTRICITY":"0.00019410","OBJECT_NAME":"STARLINK-1724","OBJECT_TYPE":"PAYLOAD","FILE":"3118781","NORAD_CAT_ID":"46375","PERIAPSIS":"545.903","SITE":"AFETR","EPOCH":"2021-09-18T19:12:18.624384","OBJECT_ID":"2020-062BC","SEMIMAJOR_AXIS":"6925.382","REV_AT_EPOCH":"5882","MEAN_MOTION_DOT":"0.00000864","CENTER_NAME":"EARTH","GP_ID":"184973492","MEAN_MOTION":"15.06389040","APOAPSIS":"548.591","TLE_LINE2":"2 46375  53.0555 101.9479 0001941  87.1524 272.9687 15.06389040 58823","EPHEMERIS_TYPE":"0","DECAY_DATE":null,"CLASSIFICATION_TYPE":"U","RA_OF_ASC_NODE":"101.9479","TIME_SYSTEM":"UTC","PERIOD":"95.593","MEAN_ANOMALY":"272.9687","MEAN_ELEMENT_THEORY":"SGP4","TLE_LINE1":"1 46375U 20062BC  21261.80021556  .00000864  00000-0  76939-4 0  9990"},{"COUNTRY_CODE":"US","LAUNCH_DATE":"2020-09-03","RCS_SIZE":"LARGE","REF_FRAME":"TEME","INCLINATION":"53.0549","OBJECT_ID":"2020-062BD","SITE":"AFETR","EPOCH":"2021-09-18T19:33:32.093856","PERIAPSIS":"545.822","FILE":"3118781","NORAD_CAT_ID":"46376","OBJECT_TYPE":"PAYLOAD","OBJECT_NAME":"STARLINK-1742","ECCENTRICITY":"0.00020030","ELEMENT_SET_NO":"999","BSTAR":"0.00006090000000","MEAN_MOTION_DDOT":"0.0000000000000","ARG_OF_PERICENTER":"91.9798","CLASSIFICATION_TYPE":"U","DECAY_DATE":null,"TLE_LINE2":"2 46376  53.0549 101.8890 0002003  91.9798 268.1420 15.06401544 58825","EPHEMERIS_TYPE":"0","APOAPSIS":"548.596","MEAN_MOTION":"15.06401544","CENTER_NAME":"EARTH","GP_ID":"184973743","MEAN_MOTION_DOT":"0.00000626","SEMIMAJOR_AXIS":"6925.344","REV_AT_EPOCH":"5882","TLE_LINE1":"1 46376U 20062BD  21261.81495479  .00000626  00000-0  60900-4 0  9998","MEAN_ELEMENT_THEORY":"SGP4","MEAN_ANOMALY":"268.1420","PERIOD":"95.592","TIME_SYSTEM":"UTC","RA_OF_ASC_NODE":"101.8890"},{"RCS_SIZE":"LARGE","REF_FRAME":"TEME","COUNTRY_CODE":"US","LAUNCH_DATE":"2020-09-03","INCLINATION":"53.0555","NORAD_CAT_ID":"46378","FILE":"3118781","OBJECT_TYPE":"PAYLOAD","OBJECT_ID":"2020-062BF","EPOCH":"2021-09-18T16:38:23.705088","SITE":"AFETR","PERIAPSIS":"545.944","ELEMENT_SET_NO":"999","BSTAR":"0.00006715200000","MEAN_MOTION_DDOT":"0.0000000000000","ARG_OF_PERICENTER":"90.4311","OBJECT_NAME":"STARLINK-1751","ECCENTRICITY":"0.00018670","EPHEMERIS_TYPE":"0","TLE_LINE2":"2 46378  53.0555 102.4341 0001867  90.4311 269.6892 15.06392411 58803","CLASSIFICATION_TYPE":"U","DECAY_DATE":null,"MEAN_MOTION_DOT":"0.00000719","SEMIMAJOR_AXIS":"6925.372","REV_AT_EPOCH":"5880","APOAPSIS":"548.530","MEAN_MOTION":"15.06392411","GP_ID":"184973994","CENTER_NAME":"EARTH","MEAN_ELEMENT_THEORY":"SGP4","MEAN_ANOMALY":"269.6892","TLE_LINE1":"1 46378U 20062BF  21261.69332992  .00000719  00000-0  67152-4 0  9995","PERIOD":"95.593","TIME_SYSTEM":"UTC","RA_OF_ASC_NODE":"102.4341"},{"COUNTRY_CODE":"US","LAUNCH_DATE":"2020-09-03","REF_FRAME":"TEME","RCS_SIZE":"LARGE","INCLINATION":"53.0339","OBJECT_ID":"2020-062BG","SITE":"AFETR","EPOCH":"2021-09-18T14:15:11.646720","PERIAPSIS":"312.072","NORAD_CAT_ID":"46379","FILE":"3118781","OBJECT_TYPE":"PAYLOAD","OBJECT_NAME":"STARLINK-1756","ECCENTRICITY":"0.00016080","ELEMENT_SET_NO":"999","ARG_OF_PERICENTER":"36.2171","MEAN_MOTION_DDOT":"0.0000000000000","BSTAR":"0.00051567000000","CLASSIFICATION_TYPE":"U","DECAY_DATE":null,"EPHEMERIS_TYPE":"0","TLE_LINE2":"2 46379  53.0339 355.8536 0001608  36.2171 323.8960 15.86129451 60283","APOAPSIS":"314.224","MEAN_MOTION":"15.86129451","CENTER_NAME":"EARTH","GP_ID":"184974745","MEAN_MOTION_DOT":"0.00131792","REV_AT_EPOCH":"6028","SEMIMAJOR_AXIS":"6691.283","TLE_LINE1":"1 46379U 20062BG  21261.59388480  .00131792  00000-0  51567-3 0  9996","MEAN_ELEMENT_THEORY":"SGP4","MEAN_ANOMALY":"323.8960","PERIOD":"90.787","TIME_SYSTEM":"UTC","RA_OF_ASC_NODE":"355.8536"},{"PERIOD":"95.592","TIME_SYSTEM":"UTC","RA_OF_ASC_NODE":"127.9269","TLE_LINE1":"1 46380U 20062BH  21261.58227407  .00001077  00000-0  91174-4 0  9999","MEAN_ELEMENT_THEORY":"SGP4","MEAN_ANOMALY":"280.0441","APOAPSIS":"548.630","MEAN_MOTION":"15.06402767","GP_ID":"184972992","CENTER_NAME":"EARTH","MEAN_MOTION_DOT":"0.00001077","SEMIMAJOR_AXIS":"6925.340","REV_AT_EPOCH":"5844","DECAY_DATE":null,"CLASSIFICATION_TYPE":"U","TLE_LINE2":"2 46380  53.0523 127.9269 0002057  80.0780 280.0441 15.06402767 58442","EPHEMERIS_TYPE":"0","OBJECT_NAME":"STARLINK-1758","ECCENTRICITY":"0.00020570","ELEMENT_SET_NO":"999","ARG_OF_PERICENTER":"80.0780","MEAN_MOTION_DDOT":"0.0000000000000","BSTAR":"0.00009117400000","OBJECT_ID":"2020-062BH","SITE":"AFETR","EPOCH":"2021-09-18T13:58:28.479648","PERIAPSIS":"545.781","FILE":"3118781","NORAD_CAT_ID":"46380","OBJECT_TYPE":"PAYLOAD","INCLINATION":"53.0523","COUNTRY_CODE":"US","LAUNCH_DATE":"2020-09-03","RCS_SIZE":"LARGE","REF_FRAME":"TEME"},{"INCLINATION":"53.0542","COUNTRY_CODE":"US","LAUNCH_DATE":"2020-09-03","REF_FRAME":"TEME","RCS_SIZE":"LARGE","ECCENTRICITY":"0.00019440","OBJECT_NAME":"STARLINK-1769","MEAN_MOTION_DDOT":"0.0000000000000","BSTAR":"-0.00002740800000","ARG_OF_PERICENTER":"91.6798","ELEMENT_SET_NO":"999","SITE":"AFETR","EPOCH":"2021-09-18T16:43:41.759904","PERIAPSIS":"545.893","OBJECT_ID":"2020-062BK","OBJECT_TYPE":"PAYLOAD","FILE":"3118781","NORAD_CAT_ID":"46382","CENTER_NAME":"EARTH","GP_ID":"184973243","APOAPSIS":"548.586","MEAN_MOTION":"15.06391585","SEMIMAJOR_AXIS":"6925.374","REV_AT_EPOCH":"5881","MEAN_MOTION_DOT":"-0.00000690","CLASSIFICATION_TYPE":"U","DECAY_DATE":null,"TLE_LINE2":"2 46382  53.0542 102.4189 0001944  91.6798 268.4414 15.06391585 58811","EPHEMERIS_TYPE":"0","RA_OF_ASC_NODE":"102.4189","PERIOD":"95.593","TIME_SYSTEM":"UTC","TLE_LINE1":"1 46382U 20062BK  21261.69701111 -.00000690  00000-0 -27408-4 0  9993","MEAN_ELEMENT_THEORY":"SGP4","MEAN_ANOMALY":"268.4414"},{"REV_AT_EPOCH":"5813","SEMIMAJOR_AXIS":"6925.334","MEAN_MOTION_DOT":"0.00001237","GP_ID":"184946385","CENTER_NAME":"EARTH","APOAPSIS":"548.528","MEAN_MOTION":"15.06404592","EPHEMERIS_TYPE":"0","TLE_LINE2":"2 46383  53.0543 148.6640 0001919  73.1278 286.9921 15.06404592 58133","DECAY_DATE":null,"CLASSIFICATION_TYPE":"U","RA_OF_ASC_NODE":"148.6640","PERIOD":"95.592","TIME_SYSTEM":"UTC","MEAN_ELEMENT_THEORY":"SGP4","MEAN_ANOMALY":"286.9921","TLE_LINE1":"1 46383U 20062BL  21261.41825006  .00001237  00000-0  10195-3 0  9994","INCLINATION":"53.0543","RCS_SIZE":"LARGE","REF_FRAME":"TEME","COUNTRY_CODE":"US","LAUNCH_DATE":"2020-09-03","ARG_OF_PERICENTER":"73.1278","MEAN_MOTION_DDOT":"0.0000000000000","BSTAR":"0.00010195000000","ELEMENT_SET_NO":"999","ECCENTRICITY":"0.00019190","OBJECT_NAME":"STARLINK-1770","OBJECT_TYPE":"PAYLOAD","NORAD_CAT_ID":"46383","FILE":"3118594","EPOCH":"2021-09-18T10:02:16.805184","SITE":"AFETR","PERIAPSIS":"545.871","OBJECT_ID":"2020-062BL"},{"OBJECT_TYPE":"PAYLOAD","NORAD_CAT_ID":"46384","FILE":"3118594","SITE":"AFETR","EPOCH":"2021-09-18T10:07:35.856192","PERIAPSIS":"545.800","OBJECT_ID":"2020-062BM","ARG_OF_PERICENTER":"63.9240","MEAN_MOTION_DDOT":"0.0000000000000","BSTAR":"-0.00005330200000","ELEMENT_SET_NO":"999","ECCENTRICITY":"0.00020790","OBJECT_NAME":"STARLINK-1771","REF_FRAME":"TEME","RCS_SIZE":"LARGE","COUNTRY_CODE":"US","LAUNCH_DATE":"2020-09-03","INCLINATION":"53.0529","MEAN_ELEMENT_THEORY":"SGP4","MEAN_ANOMALY":"296.1963","TLE_LINE1":"1 46384U 20062BM  21261.42194278 -.00001075  00000-0 -53302-4 0  9996","RA_OF_ASC_NODE":"148.6367","PERIOD":"95.593","TIME_SYSTEM":"UTC","TLE_LINE2":"2 46384  53.0529 148.6367 0002079  63.9240 296.1963 15.06391562 58139","EPHEMERIS_TYPE":"0","CLASSIFICATION_TYPE":"U","DECAY_DATE":null,"REV_AT_EPOCH":"5813","SEMIMAJOR_AXIS":"6925.374","MEAN_MOTION_DOT":"-0.00001075","CENTER_NAME":"EARTH","GP_ID":"184946635","APOAPSIS":"548.679","MEAN_MOTION":"15.06391562"}];
